{
    "links": {
        "self": "http://www.neowsapp.com/rest/v1/neo/3582666?api_key=iIulBulltgU6a56xZRHN4H3l9WmuAYTsLGpBGhQ2"
    },
    "id": "3582666",
    "neo_reference_id": "3582666",
    "name": "(2011 UQ91)",
    "designation": "2011 UQ91",
    "nasa_jpl_url": "http://ssd.jpl.nasa.gov/sbdb.cgi?sstr=3582666",
    "absolute_magnitude_h": 20.7,
    "estimated_diameter": {
        "kilometers": {
            "estimated_diameter_min": 0.1925550782,
            "estimated_diameter_max": 0.4305662442
        },
        "meters": {
            "estimated_diameter_min": 192.5550781879,
            "estimated_diameter_max": 430.566244241
        },
        "miles": {
            "estimated_diameter_min": 0.1196481415,
            "estimated_diameter_max": 0.2675413778
        },
        "feet": {
            "estimated_diameter_min": 631.7424027221,
            "estimated_diameter_max": 1412.6189567557
        }
    },
    "is_potentially_hazardous_asteroid": false,
    "close_approach_data": [
        {
            "close_approach_date": "1994-11-05",
            "close_approach_date_full": "1994-Nov-05 16:06",
            "epoch_date_close_approach": 784051560000,
            "relative_velocity": {
                "kilometers_per_second": "19.1685378372",
                "kilometers_per_hour": "69006.7362140258",
                "miles_per_hour": "42878.1022880984"
            },
            "miss_distance": {
                "astronomical": "0.4930306222",
                "lunar": "191.7889120358",
                "kilometers": "73756330.925894714",
                "miles": "45830058.8692824932"
            },
            "orbiting_body": "Earth"
        },
        {
            "close_approach_date": "2011-11-06",
            "close_approach_date_full": "2011-Nov-06 13:10",
            "epoch_date_close_approach": 1320585000000,
            "relative_velocity": {
                "kilometers_per_second": "19.6828609175",
                "kilometers_per_hour": "70858.2993028808",
                "miles_per_hour": "44028.5915862817"
            },
            "miss_distance": {
                "astronomical": "0.3611639794",
                "lunar": "140.4927879866",
                "kilometers": "54029362.038963878",
                "miles": "33572288.8032943964"
            },
            "orbiting_body": "Earth"
        },
        {
            "close_approach_date": "2028-11-04",
            "close_approach_date_full": "2028-Nov-04 13:37",
            "epoch_date_close_approach": 1856957820000,
            "relative_velocity": {
                "kilometers_per_second": "21.1221435237",
                "kilometers_per_hour": "76039.7166854305",
                "miles_per_hour": "47248.1228482332"
            },
            "miss_distance": {
                "astronomical": "0.3468202119",
                "lunar": "134.9130624291",
                "kilometers": "51883564.973188653",
                "miles": "32238952.3342552914"
            },
            "orbiting_body": "Earth"
        }
    ],
    "orbital_data": {
        "orbit_id": "12",
        "orbit_determination_date": "2017-04-06 08:52:17",
        "first_observation_date": "2011-10-22",
        "last_observation_date": "2011-11-26",
        "data_arc_in_days": 35,
        "observations_used": 51,
        "orbit_uncertainty": "6",
        "minimum_orbit_intersection": ".334441",
        "jupiter_tisserand_invariant": "3.489",
        "epoch_osculation": "2459000.5",
        "eccentricity": ".4066141391302066",
        "semi_major_axis": "1.999050578750028",
        "inclination": "38.48107995226268",
        "ascending_node_longitude": "215.0152145974044",
        "orbital_period": "1032.366968923935",
        "perihelion_distance": "1.186208348593844",
        "perihelion_argument": "236.1900788488824",
        "aphelion_distance": "2.811892808906211",
        "perihelion_time": "2459031.817185000159",
        "mean_anomaly": "349.0792838792502",
        "mean_motion": ".3487132103570089",
        "equinox": "J2000",
        "orbit_class": {
            "orbit_class_type": "AMO",
            "orbit_class_description": "Near-Earth asteroid orbits similar to that of 1221 Amor",
            "orbit_class_range": "1.017 AU < q (perihelion) < 1.3 AU"
        }
    },
    "is_sentry_object": false
}